STARLINK-36584          
1 67547U 26014R   26027.58337963 -.01172728  45729-3 -19192-2 0  9997
2 67547  97.2812 270.2234 0001061  76.7824 339.1522 16.03322001  2085
STARLINK-36586          
1 67548U 26014S   26027.58337963 -.01170603  45667-3 -18965-2 0  9996
2 67548  97.2815 270.2244 0001158  71.2066 346.4938 16.03491835  2089
STARLINK-36564          
1 67549U 26014T   26027.58337963 -.01164230  45284-3 -18702-2 0  9990
2 67549  97.2817 270.2250 0001143  74.7340 344.5266 16.03635074  2028
STARLINK-36563          
1 67550U 26014U   26027.58337963 -.01163216  45289-3 -18525-2 0  9993
2 67550  97.2811 270.2254 0001174  76.7819 344.0214 16.03780393  2084
STARLINK-36566          
1 67551U 26014V   26027.58337963 -.01152033  44554-3 -18209-2 0  9992
2 67551  97.2809 270.2261 0001062  73.4366 348.7989 16.03906342  2081
STARLINK-36567          
1 67552U 26014W   26027.58337963 -.01150075  44484-3 -18034-2 0  9995
2 67552  97.2808 270.2268 0001171  90.6488 333.0254 16.04039466  2082
STARLINK-36569          
1 67553U 26014X   26027.58337963 -.01144768  44196-3 -17766-2 0  9999
2 67553  97.2808 270.2275 0001101  73.5728 351.8823 16.04212108  2087
STARLINK-36395          
1 67554U 26014Y   26027.58337963 -.01125314  43049-3 -16994-2 0  9994
2 67554  97.2808 270.2298 0001120  81.7638 348.5094 16.04664593  2087
STARLINK-36559          
1 67555U 26014Z   26027.58337963 -.01131347  43406-3 -17226-2 0  9994
2 67555  97.2809 270.2291 0001077  76.7559 352.0203 16.04528708  2088
2026-015A               
1 67556U 26015A   26028.99025665  .00000120  00000+0  16272-3 0  9996
2 67556  88.9996 282.6946 0004852 109.7412 250.4264 13.52684968   892
2026-015B               
1 67557U 26015B   26028.99037264  .00000071  00000+0  88132-4 0  9995
2 67557  88.9996 282.6949 0004932 109.0359 251.1328 13.52660409   891
ELECTRON R/B            
1 67558U 26015C   26028.88550096  .01025010 -47775-6  11602-2 0  9992
2 67558  89.0042 282.5283 0603143 247.0469 106.6056 14.90489877   961
ELECTRON KICK STAGE R/B 
1 67559U 26015D   26028.96953081  .00078824  43490-6  13431-2 0  9994
2 67559  89.0538 282.5773 0538124 313.0216  42.7076 14.65955815   960
STARLINK-36426          
1 67560U 26014AA  26027.58337963 -.01138703  43830-3 -17536-2 0  9998
2 67560  97.2806 270.2281 0001173  81.1243 345.7526 16.04339818  2086
CZ-2C DEB               
1 67586U 26009C   26027.67463691  .00020786  00000+0  10752-2 0  9997
2 67586  97.2318 101.8078 0116751 181.6214 178.4655 15.10438808  1884
CZ-2C DEB               
1 67587U 26009D   26028.78372896  .00029570  00000+0  14706-2 0  9990
2 67587  97.6760 103.5594 0109806 180.1237 179.9985 15.12358287  2050
